QZS-1R                  
1 49336U 21096A   24260.40036812 -.00000212  00000+0  00000+0 0  9995
2 49336  36.1301  89.1453 0743592 269.6944 275.5252  1.00290649 10607
